NORAD_CAT_ID,OBJECT_NAME,OBJECT_TYPE,EPOCH,MEAN_MOTION,ECCENTRICITY,INCLINATION,RA_OF_ASC_NODE,ARG_OF_PERICENTER,MEAN_ANOMALY,BSTAR,MEAN_MOTION_DOT,MEAN_MOTION_DDOT,TLE_LINE0,TLE_LINE1,TLE_LINE2,SEMIMAJOR_AXIS,PERIOD,APOGEE,PERIGEE,DECAYED
54058.0,STARLINK-5167,PAYLOAD,2023-10-21 22:57:06,15.08841029,0.0001764,53.2183,288.5154,89.7275,270.3919,0.00020039,2.903e-05,0.0,0 STARLINK-5167,1 54058U 22136H   23294.95632982  .00002903  00000-0  20039-3 0  9991,2 54058  53.2183 288.5154 0001764  89.7275 270.3919 15.08841029 55543,6917.877,95.437,540.963,538.522,0.0
54058.0,STARLINK-5167,PAYLOAD,2023-10-22 06:54:02,15.08855075,0.0001658,53.2178,287.029,94.9683,265.1498,0.00040519,6.169e-05,0.0,0 STARLINK-5167,1 54058U 22136H   23295.28752322  .00006169  00000-0  40519-3 0  9992,2 54058  53.2178 287.0290 0001658  94.9683 265.1498 15.08855075 55590,6917.834,95.437,540.846,538.552,0.0
54058.0,STARLINK-5167,PAYLOAD,2023-10-22 16:26:20,15.08852068,0.0001171,53.2172,285.2442,83.6899,276.4226,0.00028665,4.279e-05,0.0,0 STARLINK-5167,1 54058U 22136H   23295.68496149  .00004279  00000-0  28665-3 0  9996,2 54058  53.2172 285.2442 0001171  83.6899 276.4226 15.08852068 55657,6917.844,95.437,540.519,538.898,0.0
54058.0,STARLINK-5167,PAYLOAD,2023-10-23 05:09:26,15.08829892,0.0002266,53.2188,282.8616,85.9716,274.1535,-0.00016122,-2.853e-05,0.0,0 STARLINK-5167,1 54058U 22136H   23296.21489374 -.00002853  00000-0 -16122-3 0  9991,2 54058  53.2188 282.8616 0002266  85.9716 274.1535 15.08829892 56219,6917.911,95.438,541.344,538.209,0.0
54058.0,STARLINK-5167,PAYLOAD,2023-10-23 06:44:49,15.08830976,0.0001635,53.2173,282.5686,84.9418,275.1761,-0.00013652,-2.46e-05,0.0,0 STARLINK-5167,1 54058U 22136H   23296.28113282 -.00002460  00000-0 -13652-3 0  9999,2 54058  53.2173 282.5686 0001635  84.9418 275.1761 15.08830976 55748,6917.908,95.438,540.904,538.642,0.0
54058.0,STARLINK-5167,PAYLOAD,2023-10-24 05:00:13,15.08844449,0.0001585,53.2166,278.4053,85.8014,274.3159,0.00035547,5.375e-05,0.0,0 STARLINK-5167,1 54058U 22136H   23297.20849194  .00005375  00000-0  35547-3 0  9993,2 54058  53.2166 278.4053 0001585  85.8014 274.3159 15.08844449 56369,6917.867,95.437,540.828,538.635,0.0
54058.0,STARLINK-5167,PAYLOAD,2023-10-24 06:35:36,15.08845073,0.0001575,53.2165,278.108,86.0152,274.102,0.00068438,0.00010622,0.0,0 STARLINK-5167,1 54058U 22136H   23297.27473369  .00010622  00000-0  68438-3 0  9993,2 54058  53.2165 278.1080 0001575  86.0152 274.1020 15.08845073 55896,6917.865,95.437,540.819,538.64,0.0
54058.0,STARLINK-5167,PAYLOAD,2023-10-25 08:01:46,15.08854121,0.0001628,53.2159,273.348,95.0058,265.112,0.00049277,7.566e-05,0.0,0 STARLINK-5167,1 54058U 22136H   23298.33456969  .00007566  00000-0  49277-3 0  9991,2 54058  53.2159 273.3480 0001628  95.0058 265.1120 15.08854121 56531,6917.837,95.437,540.828,538.576,0.0
54058.0,STARLINK-5167,PAYLOAD,2023-10-26 04:41:48,15.08832845,0.0001741,53.2181,269.482,89.055,271.0641,-6.1376e-05,-1.265e-05,0.0,0 STARLINK-5167,1 54058U 22136H   23299.19569652 -.00001265  00000-0 -61376-4 0  9997,2 54058  53.2181 269.4820 0001741  89.0550 271.0641 15.08832845 56663,6917.902,95.438,540.972,538.563,0.0
54058.0,STARLINK-5167,PAYLOAD,2023-10-26 07:52:34,15.08850223,0.0001707,53.218,268.887,88.7156,271.4032,0.00040494,6.164e-05,0.0,0 STARLINK-5167,1 54058U 22136H   23299.32817204  .00006164  00000-0  40494-3 0  9999,2 54058  53.2180 268.8870 0001707  88.7156 271.4032 15.08850223 56680,6917.849,95.437,540.895,538.533,0.0
54058.0,STARLINK-5167,PAYLOAD,2023-10-27 04:32:34,15.08865531,0.0001682,53.2171,265.0214,91.1032,269.0153,0.00097129,0.00015215,0.0,0 STARLINK-5167,1 54058U 22136H   23300.18928930  .00015215  00000-0  97129-3 0  9999,2 54058  53.2171 265.0214 0001682  91.1032 269.0153 15.08865531 56331,6917.802,95.436,540.831,538.504,0.0
54058.0,STARLINK-5167,PAYLOAD,2023-10-27 22:01:49,15.088456,0.0001395,53.2178,261.7505,100.2359,259.879,0.00039874,6.065e-05,0.0,0 STARLINK-5167,1 54058U 22136H   23300.91793191  .00006065  00000-0  39874-3 0  9995,2 54058  53.2178 261.7505 0001395 100.2359 259.8790 15.08845600 56440,6917.863,95.437,540.693,538.763,0.0
54058.0,STARLINK-5167,PAYLOAD,2023-10-28 01:12:35,15.08843568,0.0001608,53.2177,261.1558,104.6179,255.4991,0.0003019,4.52e-05,0.0,0 STARLINK-5167,1 54058U 22136H   23301.05041169  .00004520  00000-0  30190-3 0  9998,2 54058  53.2177 261.1558 0001608 104.6179 255.4991 15.08843568 56947,6917.869,95.437,540.847,538.622,0.0
54058.0,STARLINK-5167,PAYLOAD,2023-10-28 13:55:40,15.08841413,0.0001713,53.2179,258.7777,89.884,270.2348,0.00072677,0.00011298,0.0,0 STARLINK-5167,1 54058U 22136H   23301.58033452  .00011298  00000-0  72677-3 0  9998,2 54058  53.2179 258.7777 0001713  89.8840 270.2348 15.08841413 56544,6917.876,95.437,540.926,538.556,0.0
54058.0,STARLINK-5167,PAYLOAD,2023-10-28 21:52:36,15.08839714,0.0002075,53.2181,257.2965,105.2588,254.8633,0.0005428,8.361e-05,0.0,0 STARLINK-5167,1 54058U 22136H   23301.91153807  .00008361  00000-0  54280-3 0  9999,2 54058  53.2181 257.2965 0002075 105.2588 254.8633 15.08839714 56595,6917.881,95.438,541.182,538.311,0.0
54058.0,STARLINK-5167,PAYLOAD,2023-10-29 04:14:09,15.0884063,0.000189,53.218,256.1051,106.0169,254.1031,0.00047375,7.26e-05,0.0,0 STARLINK-5167,1 54058U 22136H   23302.17649663  .00007260  00000-0  47375-3 0  9992,2 54058  53.2180 256.1051 0001890 106.0169 254.1031 15.08840630 57119,6917.878,95.438,541.051,538.436,0.0
54058.0,STARLINK-5167,PAYLOAD,2023-10-29 13:46:28,15.08838462,0.0001547,53.2171,254.3188,101.7203,258.3963,0.0004382,6.693e-05,0.0,0 STARLINK-5167,1 54058U 22136H   23302.57393844  .00006693  00000-0  43820-3 0  9993,2 54058  53.2171 254.3188 0001547 101.7203 258.3963 15.08838462 56692,6917.885,95.438,540.82,538.68,0.0
54058.0,STARLINK-5167,PAYLOAD,2023-10-30 04:04:56,15.08836582,0.0001903,53.2189,251.6422,96.0647,264.0562,0.00013227,1.817e-05,0.0,0 STARLINK-5167,1 54058U 22136H   23303.17010272  .00001817  00000-0  13227-3 0  9992,2 54058  53.2189 251.6422 0001903  96.0647 264.0562 15.08836582 57260,6917.891,95.438,541.072,538.439,0.0
54058.0,STARLINK-5167,PAYLOAD,2023-10-30 13:37:15,15.08840293,0.0001995,53.2191,249.855,78.9423,281.1794,0.0001903,2.742e-05,0.0,0 STARLINK-5167,1 54058U 22136H   23303.56754324  .00002742  00000-0  19030-3 0  9994,2 54058  53.2191 249.8550 0001995  78.9423 281.1794 15.08840293 56840,6917.879,95.438,541.125,538.364,0.0
54058.0,STARLINK-5167,PAYLOAD,2023-10-31 13:28:02,15.08839053,0.000162,53.219,245.3957,85.6138,274.5039,9.9933e-05,1.303e-05,0.0,0 STARLINK-5167,1 54058U 22136H   23304.56114542  .00001303  00000-0  99933-4 0  9990,2 54058  53.2190 245.3957 0001620  85.6138 274.5039 15.08839053 56990,6917.883,95.438,540.869,538.628,0.0
54058.0,STARLINK-5167,PAYLOAD,2023-10-31 19:49:35,15.08836976,0.0001789,53.2189,244.2088,79.4406,280.6788,0.00012873,1.761e-05,0.0,0 STARLINK-5167,1 54058U 22136H   23304.82610819  .00001761  00000-0  12873-3 0  9992,2 54058  53.2189 244.2088 0001789  79.4406 280.6788 15.08836976 57515,6917.89,95.438,540.992,538.517,0.0
54058.0,STARLINK-5167,PAYLOAD,2023-11-01 02:11:08,15.08839744,0.0001288,53.2171,243.0201,77.0685,283.0451,0.00017389,2.481e-05,0.0,0 STARLINK-5167,1 54058U 22136H   23305.09106646  .00002481  00000-0  17389-3 0  9997,2 54058  53.2171 243.0201 0001288  77.0685 283.0451 15.08839744 57078,6917.881,95.438,540.637,538.855,0.0
54058.0,STARLINK-5167,PAYLOAD,2023-11-01 19:40:22,15.08846173,0.0001795,53.2186,239.7482,88.9821,271.1377,0.0002144,3.126e-05,0.0,0 STARLINK-5167,1 54058U 22136H   23305.81970354  .00003126  00000-0  21440-3 0  9992,2 54058  53.2186 239.7482 0001795  88.9821 271.1377 15.08846173 57184,6917.862,95.437,540.968,538.485,0.0
54058.0,STARLINK-5167,PAYLOAD,2023-11-02 02:01:54,15.08859225,0.0001643,53.2189,238.5564,76.1118,284.0057,0.00014638,2.044e-05,0.0,0 STARLINK-5167,1 54058U 22136H   23306.08465630  .00002044  00000-0  14638-3 0  9997,2 54058  53.2189 238.5564 0001643  76.1118 284.0057 15.08859225 57703,6917.822,95.436,540.823,538.55,0.0
54058.0,STARLINK-5167,PAYLOAD,2023-11-02 13:09:36,15.08838632,0.0001949,53.2188,236.4779,74.3792,285.7415,-8.7659e-06,-4.28e-06,0.0,0 STARLINK-5167,1 54058U 22136H   23306.54834403 -.00000428  00000-0 -87659-5 0  9997,2 54058  53.2188 236.4779 0001949  74.3792 285.7415 15.08838632 57776,6917.885,95.438,541.098,538.401,0.0
54058.0,STARLINK-5167,PAYLOAD,2023-11-02 22:41:55,15.08838452,0.0001671,53.2174,234.6932,79.468,280.65,1.4376e-05,-5.9e-07,0.0,0 STARLINK-5167,1 54058U 22136H   23306.94578554 -.00000059  00000-0  14376-4 0  9997,2 54058  53.2174 234.6932 0001671  79.4680 280.6500 15.08838452 57359,6917.885,95.438,540.906,538.594,0.0
54058.0,STARLINK-5167,PAYLOAD,2023-11-03 05:03:27,15.08847325,0.0001655,53.2182,233.5003,91.8391,268.279,4.9453e-05,4.99e-06,0.0,0 STARLINK-5167,1 54058U 22136H   23307.21074001  .00000499  00000-0  49453-4 0  9997,2 54058  53.2182 233.5003 0001655  91.8391 268.2790 15.08847325 57873,6917.858,95.437,540.868,538.578,0.0
54058.0,STARLINK-5167,PAYLOAD,2023-11-03 22:32:42,15.08841601,0.0001572,53.2172,230.2283,93.001,267.1162,3.9646e-05,3.43e-06,0.0,0 STARLINK-5167,1 54058U 22136H   23307.93938265  .00000343  00000-0  39646-4 0  9998,2 54058  53.2172 230.2283 0001572  93.0010 267.1162 15.08841601 57508,6917.875,95.437,540.828,538.653,0.0
54058.0,STARLINK-5167,PAYLOAD,2023-11-04 00:08:05,15.08842472,0.0001591,53.2171,229.931,93.0278,267.0896,6.5773e-05,7.59e-06,0.0,0 STARLINK-5167,1 54058U 22136H   23308.00562236  .00000759  00000-0  65773-4 0  9999,2 54058  53.2171 229.9310 0001591  93.0278 267.0896 15.08842472 57993,6917.873,95.437,540.838,538.637,0.0
54058.0,STARLINK-5167,PAYLOAD,2023-11-04 22:23:29,15.08841737,0.0001772,53.2177,225.7694,110.5977,249.5206,0.00017004,2.419e-05,0.0,0 STARLINK-5167,1 54058U 22136H   23308.93298328  .00002419  00000-0  17004-3 0  9997,2 54058  53.2177 225.7694 0001772 110.5977 249.5206 15.08841737 57656,6917.875,95.437,540.966,538.514,0.0
